*******************************************************************************
JPL/HORIZONS               225 Henrietta (A882 HA)         2023-Sep-04 11:05:06
Rec #:     225 (+COV) Soln.date: 2023-Aug-22_18:43:13   # obs: 4744 (1895-2023)
 
IAU76/J2000 helio. ecliptic osc. elements (au, days, deg., period=Julian yrs):
 
  EPOCH=  2456531.5 ! 2013-Aug-27.00 (TDB)         Residual RMS= .22124
   EC= .2641935191962136   QR= 2.496049340315402   TP= 2456593.7551544574
   OM= 197.1141770418385   W=  104.3270081415958   IN= 20.86708268429588
   A= 3.39226332661374     MA= 350.1792410161232   ADIST= 4.288477312912079
   PER= 6.24802            N= .157750134           ANGMOM= .030557288
   DAN= 3.37621            DDN= 2.96185            L= 302.4012504
   B= 20.1893092           MOID= 1.57904005        TP= 2013-Oct-28.2551544574
 
Asteroid physical parameters (km, seconds, rotational period in hours):
   GM= n.a.                RAD= 47.967             ROTPER= 7.3556
   H= 8.85                 G= .150                 B-V= .648
                           ALBEDO= .062            STYP= F

ASTEROID comments: 
1: soln ref.= JPL#127, OCC=0
2: source=ORB
*******************************************************************************


*******************************************************************************
Ephemeris / API_USER Mon Sep  4 11:05:06 2023 Pasadena, USA      / Horizons
*******************************************************************************
Target body name: 225 Henrietta (A882 HA)         {source: JPL#127}
Center body name: Solar System Barycenter (0)     {source: DE441}
Center-site name: BODY CENTER
*******************************************************************************
Start time      : A.D. 2023-Aug-12 00:00:00.0000 TDB
Stop  time      : A.D. 2023-Aug-13 00:00:00.0000 TDB
Step-size       : 2880 minutes
*******************************************************************************
Center geodetic : 0.0, 0.0, 0.0                   {E-lon(deg),Lat(deg),Alt(km)}
Center cylindric: 0.0, 0.0, 0.0                   {E-lon(deg),Dxy(km),Dz(km)}
Center radii    : (undefined)
Small perturbers: Yes                             {source: SB441-N16}
Output units    : KM-S
Calendar mode   : Mixed Julian/Gregorian
Output type     : GEOMETRIC cartesian states
Output format   : 2 (position and velocity)
Reference frame : Ecliptic of J2000.0
*******************************************************************************
Initial IAU76/J2000 heliocentric ecliptic osculating elements (au, days, deg.):
  EPOCH=  2456531.5 ! 2013-Aug-27.00 (TDB)         Residual RMS= .22124        
   EC= .2641935191962136   QR= 2.496049340315402   TP= 2456593.7551544574      
   OM= 197.1141770418385   W=  104.3270081415958   IN= 20.86708268429588       
  Equivalent ICRF heliocentric cartesian coordinates (au, au/d):
   X= 5.635861880689623E-01  Y=-2.454724240121351E+00  Z=-8.724564423973223E-02
  VX= 1.157883661887244E-02 VY= 3.392443571441003E-03 VZ= 1.425432888456489E-03
Asteroid physical parameters (km, seconds, rotational period in hours):        
   GM= n.a.                RAD= 47.967             ROTPER= 7.3556              
   H= 8.85                 G= .150                 B-V= .648                   
                           ALBEDO= .062            STYP= F                     
*******************************************************************************
JDTDB
   X     Y     Z
   VX    VY    VZ
*******************************************************************************
$$SOE
2460168.500000000 = A.D. 2023-Aug-12 00:00:00.0000 TDB 
 X =-4.464173197105512E+08 Y = 4.045359362639422E+08 Z =-1.970677287680751E+08
 VX=-7.987578757552825E+00 VY=-9.375854810954472E+00 VZ= 2.517830784857843E+00
$$EOE
*******************************************************************************
 
TIME

  Barycentric Dynamical Time ("TDB" or T_eph) output was requested. This
continuous coordinate time is equivalent to the relativistic proper time
of a clock at rest in a reference frame co-moving with the solar system
barycenter but outside the system's gravity well. It is the independent
variable in the solar system relativistic equations of motion.

  TDB runs at a uniform rate of one SI second per second and is independent
of irregularities in Earth's rotation.
 
CALENDAR SYSTEM

  Mixed calendar mode was active such that calendar dates after AD 1582-Oct-15
(if any) are in the modern Gregorian system. Dates prior to 1582-Oct-5 (if any)
are in the Julian calendar system, which is automatically extended for dates
prior to its adoption on 45-Jan-1 BC.  The Julian calendar is useful for
matching historical dates. The Gregorian calendar more accurately corresponds
to the Earth's orbital motion and seasons. A "Gregorian-only" calendar mode is
available if such physical events are the primary interest.

REFERENCE FRAME AND COORDINATES

  Ecliptic at the standard reference epoch

    Reference epoch: J2000.0
    X-Y plane: adopted Earth orbital plane at the reference epoch
               Note: IAU76 obliquity of 84381.448 arcseconds wrt ICRF X-Y plane
    X-axis   : ICRF
    Z-axis   : perpendicular to the X-Y plane in the directional (+ or -) sense
               of Earth's north pole at the reference epoch.

  Symbol meaning:

    JDTDB    Julian Day Number, Barycentric Dynamical Time
      X      X-component of position vector (km)
      Y      Y-component of position vector (km)
      Z      Z-component of position vector (km)
      VX     X-component of velocity vector (km/sec)                           
      VY     Y-component of velocity vector (km/sec)                           
      VZ     Z-component of velocity vector (km/sec)                           

ABERRATIONS AND CORRECTIONS

 Geometric state vectors have NO corrections or aberrations applied.

Computations by ...

    Solar System Dynamics Group, Horizons On-Line Ephemeris System
    4800 Oak Grove Drive, Jet Propulsion Laboratory
    Pasadena, CA  91109   USA

    General site: https://ssd.jpl.nasa.gov/
    Mailing list: https://ssd.jpl.nasa.gov/email_list.html
    System news : https://ssd.jpl.nasa.gov/horizons/news.html
    User Guide  : https://ssd.jpl.nasa.gov/horizons/manual.html
    Connect     : browser        https://ssd.jpl.nasa.gov/horizons/app.html#/x
                  API            https://ssd-api.jpl.nasa.gov/doc/horizons.html
                  command-line   telnet ssd.jpl.nasa.gov 6775
                  e-mail/batch   https://ssd.jpl.nasa.gov/ftp/ssd/hrzn_batch.txt
                  scripts        https://ssd.jpl.nasa.gov/ftp/ssd/SCRIPTS
    Author      : Jon.D.Giorgini@jpl.nasa.gov
*******************************************************************************
